{
    "links": {
        "self": "http://www.neowsapp.com/rest/v1/neo/3785758?api_key=iIulBulltgU6a56xZRHN4H3l9WmuAYTsLGpBGhQ2"
    },
    "id": "3785758",
    "neo_reference_id": "3785758",
    "name": "(2017 TW3)",
    "designation": "2017 TW3",
    "nasa_jpl_url": "http://ssd.jpl.nasa.gov/sbdb.cgi?sstr=3785758",
    "absolute_magnitude_h": 21.6,
    "estimated_diameter": {
        "kilometers": {
            "estimated_diameter_min": 0.1272198785,
            "estimated_diameter_max": 0.2844722965
        },
        "meters": {
            "estimated_diameter_min": 127.2198785394,
            "estimated_diameter_max": 284.4722965033
        },
        "miles": {
            "estimated_diameter_min": 0.0790507431,
            "estimated_diameter_max": 0.1767628354
        },
        "feet": {
            "estimated_diameter_min": 417.3880663071,
            "estimated_diameter_max": 933.3080892598
        }
    },
    "is_potentially_hazardous_asteroid": false,
    "close_approach_data": [
        {
            "close_approach_date": "1946-10-23",
            "close_approach_date_full": "1946-Oct-23 07:17",
            "epoch_date_close_approach": -731868180000,
            "relative_velocity": {
                "kilometers_per_second": "11.1982809761",
                "kilometers_per_hour": "40313.811514037",
                "miles_per_hour": "25049.434715486"
            },
            "miss_distance": {
                "astronomical": "0.3923447922",
                "lunar": "152.6221241658",
                "kilometers": "58693945.218712614",
                "miles": "36470726.3888535132"
            },
            "orbiting_body": "Earth"
        },
        {
            "close_approach_date": "2002-10-17",
            "close_approach_date_full": "2002-Oct-17 17:36",
            "epoch_date_close_approach": 1034876160000,
            "relative_velocity": {
                "kilometers_per_second": "12.1163915842",
                "kilometers_per_hour": "43619.00970317",
                "miles_per_hour": "27103.1563347281"
            },
            "miss_distance": {
                "astronomical": "0.474279311",
                "lunar": "184.494651979",
                "kilometers": "70951174.71066757",
                "miles": "44087015.623129666"
            },
            "orbiting_body": "Earth"
        },
        {
            "close_approach_date": "2017-10-21",
            "close_approach_date_full": "2017-Oct-21 04:46",
            "epoch_date_close_approach": 1508561160000,
            "relative_velocity": {
                "kilometers_per_second": "10.7068492268",
                "kilometers_per_hour": "38544.657216314",
                "miles_per_hour": "23950.1510353258"
            },
            "miss_distance": {
                "astronomical": "0.2605491841",
                "lunar": "101.3536326149",
                "kilometers": "38977602.971597867",
                "miles": "24219559.4106578846"
            },
            "orbiting_body": "Earth"
        },
        {
            "close_approach_date": "2032-10-24",
            "close_approach_date_full": "2032-Oct-24 04:35",
            "epoch_date_close_approach": 1982205300000,
            "relative_velocity": {
                "kilometers_per_second": "11.3200492781",
                "kilometers_per_hour": "40752.1774011452",
                "miles_per_hour": "25321.8182301727"
            },
            "miss_distance": {
                "astronomical": "0.4279213286",
                "lunar": "166.4613968254",
                "kilometers": "64016119.286130082",
                "miles": "39777772.0046038516"
            },
            "orbiting_body": "Earth"
        }
    ],
    "orbital_data": {
        "orbit_id": "10",
        "orbit_determination_date": "2018-02-10 07:09:16",
        "first_observation_date": "2017-10-10",
        "last_observation_date": "2017-11-21",
        "data_arc_in_days": 42,
        "observations_used": 58,
        "orbit_uncertainty": "5",
        "minimum_orbit_intersection": ".256467",
        "jupiter_tisserand_invariant": "3.290",
        "epoch_osculation": "2459000.5",
        "eccentricity": ".4803194542286661",
        "semi_major_axis": "2.406646004146175",
        "inclination": "19.03475477404381",
        "ascending_node_longitude": "30.45239485934308",
        "orbital_period": "1363.693429946848",
        "perihelion_distance": "1.250687108913084",
        "perihelion_argument": "356.3886831567278",
        "aphelion_distance": "3.562604899379266",
        "perihelion_time": "2459412.724082005060",
        "mean_anomaly": "251.1773964272851",
        "mean_motion": ".2639889524246162",
        "equinox": "J2000",
        "orbit_class": {
            "orbit_class_type": "AMO",
            "orbit_class_description": "Near-Earth asteroid orbits similar to that of 1221 Amor",
            "orbit_class_range": "1.017 AU < q (perihelion) < 1.3 AU"
        }
    },
    "is_sentry_object": false
}